KUIPER-00152            
1 65772U 25217L   25295.55463470  .00031031  00000+0  84171-3 0  9992
2 65772  51.8731 311.6966 0002791  90.2498 269.8808 15.37348096  4176
KUIPER-00153            
1 65773U 25217M   25295.52816841  .00033036  00000+0  95809-3 0  9991
2 65773  51.8633 312.2535 0007876 199.7085 160.3597 15.35205493  4163
KUIPER-00155            
1 65774U 25217N   25295.58032977  .00037573  00000+0  10672-2 0  9992
2 65774  51.8671 311.8619 0005111 182.7080 177.3879 15.35813096  4177
KUIPER-00156            
1 65775U 25217P   25295.55970682  .00020269  00000+0  55778-3 0  9995
2 65775  51.8729 311.7323 0002558 118.6889 241.4355 15.37149043  4178
KUIPER-00158            
1 65776U 25217Q   25295.70644720  .00018839  00000+0  53611-3 0  9998
2 65776  51.8709 311.2127 0004878 182.2240 177.8725 15.36146004  4197
KUIPER-00163            
1 65777U 25217R   25295.52568697  .00034184  00000+0  98779-3 0  9992
2 65777  51.8622 312.2352 0007118 200.2826 159.7878 15.35307071  4161
KUIPER-00165            
1 65778U 25217S   25295.69887014  .00038927  00000+0  10763-2 0  9993
2 65778  51.8711 311.1650 0003853 160.4463 199.6672 15.36641179  4195
KUIPER-00166            
1 65779U 25217T   25295.62843543  .00032907  00000+0  90321-3 0  9997
2 65779  51.8723 311.4438 0003321 131.2711 228.8562 15.36950421  4183
